[{"OBJECT_NAME":"KANOPUS-V 4","OBJECT_ID":"2018-014B","EPOCH":"2026-03-09T22:48:00.889056","MEAN_MOTION":15.22813706,"ECCENTRICITY":0.00013304,"INCLINATION":97.365,"RA_OF_ASC_NODE":336.6243,"ARG_OF_PERICENTER":69.4905,"MEAN_ANOMALY":290.6475,"EPHEMERIS_TYPE":0,"CLASSIFICATION_TYPE":"U","NORAD_CAT_ID":43181,"ELEMENT_SET_NO":999,"REV_AT_EPOCH":44963,"BSTAR":0.00051006309,"MEAN_MOTION_DOT":0.00011868,"MEAN_MOTION_DDOT":0},{"OBJECT_NAME":"PRETTY","OBJECT_ID":"2023-155H","EPOCH":"2026-03-09T19:03:45.928512","MEAN_MOTION":15.22332126,"ECCENTRICITY":0.00021064,"INCLINATION":97.5727,"RA_OF_ASC_NODE":149.5557,"ARG_OF_PERICENTER":60.6464,"MEAN_ANOMALY":299.4982,"EPHEMERIS_TYPE":0,"CLASSIFICATION_TYPE":"U","NORAD_CAT_ID":58023,"ELEMENT_SET_NO":999,"REV_AT_EPOCH":13322,"BSTAR":0.00045567627,"MEAN_MOTION_DOT":0.00010441,"MEAN_MOTION_DDOT":0}]
